IRIDIUM 57              
1 25273U 98019B   24217.46021533  .00000653  00000+0  22138-3 0  9998
2 25273  86.3938 277.9006 0002283  92.8806 267.2651 14.35309341379558
IRIDIUM 63              
1 25286U 98021B   24217.53509279  .00000871  00000+0  29422-3 0  9996
2 25286  86.3983 214.7730 0002218  93.9097 266.2353 14.35860655378666
IRIDIUM 69              
1 25319U 98026A   24216.76632008  .00000931  00000+0  28877-3 0  9999
2 25319  86.3959 229.3341 0002966  40.8172 319.3249 14.40113199377361
IRIDIUM 71              
1 25320U 98026B   24217.17298758  .00000875  00000+0  26946-3 0  9999
2 25320  86.3962 223.9146 0004233  72.3609 287.8052 14.40417984378196
IRIDIUM 73              
1 25344U 98032C   24217.17348285  .00001420  00000+0  35660-3 0  9993
2 25344  86.4466 181.2999 0002427  73.8278 286.3194 14.50677581384881
IRIDIUM 82              
1 25467U 98051A   24217.54689567  .00022318  00000+0  10677-2 0  9991
2 25467  86.3709 262.7939 0124181  43.7851 317.3152 15.12183711375795
